NORAD_CAT_ID,OBJECT_NAME,OBJECT_TYPE,EPOCH,MEAN_MOTION,ECCENTRICITY,INCLINATION,RA_OF_ASC_NODE,ARG_OF_PERICENTER,MEAN_ANOMALY,BSTAR,MEAN_MOTION_DOT,MEAN_MOTION_DDOT,TLE_LINE0,TLE_LINE1,TLE_LINE2,SEMIMAJOR_AXIS,PERIOD,APOGEE,PERIGEE,DECAYED
53974.0,STARLINK-5159,PAYLOAD,2024-01-11 19:08:43,15.08845686,0.0001749,53.2175,140.707,82.2216,277.8975,5.0353e-05,5.13e-06,0.0,0 STARLINK-5159,1 53974U 22125L   24011.79772108  .00000513  00000-0  50353-4 0  9998,2 53974  53.2175 140.7070 0001749  82.2216 277.8975 15.08845686 70737,6917.863,95.437,540.938,538.518,0.0
53974.0,STARLINK-5159,PAYLOAD,2024-01-12 14:13:20,15.08842969,0.0001388,53.2184,137.1423,107.1651,252.9494,0.00021582,3.149e-05,0.0,0 STARLINK-5159,1 53974U 22125L   24012.59259785  .00003149  00000-0  21582-3 0  9997,2 53974  53.2184 137.1423 0001388 107.1651 252.9494 15.08842969 70784,6917.871,95.437,540.697,538.776,0.0
53974.0,STARLINK-5159,PAYLOAD,2024-01-13 10:53:20,15.08857145,0.0001255,53.2175,133.2675,131.5078,228.6022,-1.6283e-05,-5.47e-06,0.0,0 STARLINK-5159,1 53974U 22125L   24013.45371043 -.00000547  00000-0 -16283-4 0  9999,2 53974  53.2175 133.2675 0001255 131.5078 228.6022 15.08857145 70988,6917.828,95.436,540.561,538.825,0.0
53974.0,STARLINK-5159,PAYLOAD,2024-01-13 14:04:06,15.08854449,0.0001401,53.2185,132.6717,136.1444,223.9659,-3.2404e-05,-8.04e-06,0.0,0 STARLINK-5159,1 53974U 22125L   24013.58619119 -.00000804  00000-0 -32404-4 0  9991,2 53974  53.2185 132.6717 0001401 136.1444 223.9659 15.08854449 70933,6917.836,95.437,540.67,538.732,0.0
53974.0,STARLINK-5159,PAYLOAD,2024-01-13 17:14:54,15.08843463,0.000123,53.2177,132.0851,71.6155,288.4971,-9.0769e-05,-1.732e-05,0.0,0 STARLINK-5159,1 53974U 22125L   24013.71868443 -.00001732  00000-0 -90769-4 0  9991,2 53974  53.2177 132.0851 0001230  71.6155 288.4971 15.08843463 71027,6917.87,95.437,540.586,538.884,0.0
53974.0,STARLINK-5159,PAYLOAD,2024-01-14 13:54:54,15.08851766,0.0001262,53.2171,128.2206,71.5108,288.6021,2.9223e-06,-2.41e-06,0.0,0 STARLINK-5159,1 53974U 22125L   24014.57979712 -.00000241  00000-0  29223-5 0  9999,2 53974  53.2171 128.2206 0001262  71.5108 288.6021 15.08851766 71083,6917.844,95.437,540.582,538.836,0.0
53974.0,STARLINK-5159,PAYLOAD,2024-01-15 12:10:18,15.08831339,0.0001312,53.2166,124.0597,59.041,301.0711,0.00013669,1.888e-05,0.0,0 STARLINK-5159,1 53974U 22125L   24015.50716334  .00001888  00000-0  13669-3 0  9994,2 53974  53.2166 124.0597 0001312  59.0410 301.0711 15.08831339 71290,6917.907,95.438,540.679,538.864,0.0
53974.0,STARLINK-5159,PAYLOAD,2024-01-15 13:45:41,15.08837962,0.0001224,53.2168,123.759,86.1685,273.9448,0.00011613,1.561e-05,0.0,0 STARLINK-5159,1 53974U 22125L   24015.57339892  .00001561  00000-0  11613-3 0  9996,2 53974  53.2168 123.7590 0001224  86.1685 273.9448 15.08837962 71234,6917.887,95.438,540.598,538.905,0.0
53974.0,STARLINK-5159,PAYLOAD,2024-01-16 12:01:06,15.08834407,0.0001319,53.2166,119.5962,109.6967,250.4168,-4.9231e-05,-1.071e-05,0.0,0 STARLINK-5159,1 53974U 22125L   24016.50077143 -.00001071  00000-0 -49231-4 0  9994,2 53974  53.2166 119.5962 0001319 109.6967 250.4168 15.08834407 71440,6917.897,95.438,540.675,538.85,0.0
53974.0,STARLINK-5159,PAYLOAD,2024-01-16 13:36:29,15.08836997,0.0001352,53.2172,119.3,94.2915,265.8232,-3.7384e-05,-8.83e-06,0.0,0 STARLINK-5159,1 53974U 22125L   24016.56700996 -.00000883  00000-0 -37384-4 0  9995,2 53974  53.2172 119.3000 0001352  94.2915 265.8232 15.08836997 71388,6917.89,95.438,540.69,538.819,0.0
53974.0,STARLINK-5159,PAYLOAD,2024-01-16 16:47:15,15.08839899,0.0001342,53.2171,118.7036,105.7786,254.3354,-2.3579e-05,-6.63e-06,0.0,0 STARLINK-5159,1 53974U 22125L   24016.69948707 -.00000663  00000-0 -23579-4 0  9990,2 53974  53.2171 118.7036 0001342 105.7786 254.3354 15.08839899 71407,6917.881,95.438,540.674,538.817,0.0
53974.0,STARLINK-5159,PAYLOAD,2024-01-17 11:51:54,15.08833969,0.0001408,53.2175,115.1338,98.5426,261.5725,-3.986e-05,-9.22e-06,0.0,0 STARLINK-5159,1 53974U 22125L   24017.49437663 -.00000922  00000-0 -39860-4 0  9991,2 53974  53.2175 115.1338 0001408  98.5426 261.5725 15.08833969 71594,6917.899,95.438,540.738,538.79,0.0
53974.0,STARLINK-5159,PAYLOAD,2024-01-18 11:42:40,15.08837638,0.0001255,53.2167,110.6763,104.5848,255.5284,0.00015335,2.153e-05,0.0,0 STARLINK-5159,1 53974U 22125L   24018.48797344  .00002153  00000-0  15335-3 0  9992,2 53974  53.2167 110.6763 0001255 104.5848 255.5284 15.08837638 71740,6917.888,95.438,540.621,538.884,0.0
53974.0,STARLINK-5159,PAYLOAD,2024-01-19 11:33:27,15.08893186,0.0001247,53.2182,106.2135,102.419,257.6941,-0.00054573,-8.975e-05,0.0,0 STARLINK-5159,1 53974U 22125L   24019.48156511 -.00008975  00000-0 -54573-3 0  9995,2 53974  53.2182 106.2135 0001247 102.4190 257.6941 15.08893186 71898,6917.718,95.434,540.445,538.72,0.0
53974.0,STARLINK-5159,PAYLOAD,2024-01-19 13:08:50,15.08845466,0.0001352,53.2176,105.9196,81.0644,279.0501,0.00012962,1.776e-05,0.0,0 STARLINK-5159,1 53974U 22125L   24019.54781147  .00001776  00000-0  12962-3 0  9997,2 53974  53.2176 105.9196 0001352  81.0644 279.0501 15.08845466 71839,6917.864,95.437,540.664,538.793,0.0
53974.0,STARLINK-5159,PAYLOAD,2024-01-19 14:44:13,15.08842301,0.000142,53.2182,105.6221,84.392,275.7234,0.00021649,3.159e-05,0.0,0 STARLINK-5159,1 53974U 22125L   24019.61405025  .00003159  00000-0  21649-3 0  9992,2 53974  53.2182 105.6221 0001420  84.3920 275.7234 15.08842301 71911,6917.873,95.437,540.721,538.756,0.0
53974.0,STARLINK-5159,PAYLOAD,2024-01-20 14:35:01,15.08847949,0.0001495,53.218,101.1578,95.744,264.3723,4.6113e-05,4.46e-06,0.0,0 STARLINK-5159,1 53974U 22125L   24020.60765172  .00000446  00000-0  46113-4 0  9995,2 53974  53.2180 101.1578 0001495  95.7440 264.3723 15.08847949 71998,6917.856,95.437,540.755,538.687,0.0
53974.0,STARLINK-5159,PAYLOAD,2024-01-21 11:15:01,15.08848395,0.0001387,53.2168,97.2937,102.9354,257.1793,-1.2206e-05,-4.82e-06,0.0,0 STARLINK-5159,1 53974U 22125L   24021.46877141 -.00000482  00000-0 -12206-4 0  9998,2 53974  53.2168  97.2937 0001387 102.9354 257.1793 15.08848395 72122,6917.855,95.437,540.679,538.76,0.0
53974.0,STARLINK-5159,PAYLOAD,2024-01-22 11:05:49,15.08841916,0.0001579,53.2165,92.8363,71.8452,288.2712,2.4963e-05,1.09e-06,0.0,0 STARLINK-5159,1 53974U 22125L   24022.46237814  .00000109  00000-0  24963-4 0  9993,2 53974  53.2165  92.8363 0001579  71.8452 288.2712 15.08841916 72341,6917.875,95.437,540.832,538.647,0.0
53974.0,STARLINK-5159,PAYLOAD,2024-01-23 09:21:13,15.08846936,0.0001581,53.2167,88.6705,86.3609,273.7564,-1.5175e-05,-5.3e-06,0.0,0 STARLINK-5159,1 53974U 22125L   24023.38973509 -.00000530  00000-0 -15175-4 0  9998,2 53974  53.2167  88.6705 0001581  86.3609 273.7564 15.08846936 72413,6917.859,95.437,540.818,538.63,0.0
53974.0,STARLINK-5159,PAYLOAD,2024-01-24 10:47:24,15.08835841,0.0001515,53.2171,83.9118,89.1905,270.9261,-2.5845e-05,-6.99e-06,0.0,0 STARLINK-5159,1 53974U 22125L   24024.44958341 -.00000699  00000-0 -25845-4 0  9994,2 53974  53.2171  83.9118 0001515  89.1905 270.9261 15.08835841 72642,6917.893,95.438,540.806,538.71,0.0
53974.0,STARLINK-5159,PAYLOAD,2024-01-25 09:02:47,15.08834368,0.0001554,53.2172,79.7526,92.5208,267.5962,5.766e-05,6.3e-06,0.0,0 STARLINK-5159,1 53974U 22125L   24025.37694406  .00000630  00000-0  57660-4 0  9999,2 53974  53.2172  79.7526 0001554  92.5208 267.5962 15.08834368 72717,6917.898,95.438,540.838,538.688,0.0
53974.0,STARLINK-5159,PAYLOAD,2024-01-26 10:28:58,15.08837677,0.000157,53.2176,74.9965,83.0208,277.0963,8.5072e-05,1.066e-05,0.0,0 STARLINK-5159,1 53974U 22125L   24026.43678567  .00001066  00000-0  85072-4 0  9999,2 53974  53.2176  74.9965 0001570  83.0208 277.0963 15.08837677 72946,6917.887,95.438,540.839,538.666,0.0
53974.0,STARLINK-5159,PAYLOAD,2024-01-27 11:55:08,15.08844339,0.0001721,53.2178,70.2363,70.4027,289.7151,9.5882e-05,1.238e-05,0.0,0 STARLINK-5159,1 53974U 22125L   24027.49662274  .00001238  00000-0  95882-4 0  9995,2 53974  53.2178  70.2363 0001721  70.4027 289.7151 15.08844339 73107,6917.867,95.437,540.923,538.542,0.0
53974.0,STARLINK-5159,PAYLOAD,2024-01-28 02:13:36,15.08834431,0.0001798,53.2175,67.5639,63.7165,296.4012,9.323e-05,1.196e-05,0.0,0 STARLINK-5159,1 53974U 22125L   24028.09278831  .00001196  00000-0  93230-4 0  9992,2 53974  53.2175  67.5639 0001798  63.7165 296.4012 15.08834431 73193,6917.897,95.438,541.006,538.519,0.0
53974.0,STARLINK-5159,PAYLOAD,2024-01-28 10:10:32,15.08838465,0.0001931,53.2185,66.0746,61.6863,298.4324,1.3569e-05,-7.2e-07,0.0,0 STARLINK-5159,1 53974U 22125L   24028.42399078 -.00000072  00000-0  13569-4 0  9996,2 53974  53.2185  66.0746 0001931  61.6863 298.4324 15.08838465 73175,6917.885,95.438,541.086,538.414,0.0
53974.0,STARLINK-5159,PAYLOAD,2024-01-29 02:04:23,15.08791316,0.0002033,53.2182,63.0998,81.3421,278.7801,0.00061564,9.511e-05,0.0,0 STARLINK-5159,1 53974U 22125L   24029.08638838  .00009511  00000-0  61564-3 0  9992,2 53974  53.2182  63.0998 0002033  81.3421 278.7801 15.08791316 73344,6918.029,95.441,541.301,538.488,0.0
53974.0,STARLINK-5159,PAYLOAD,2024-01-29 11:36:42,15.08846978,0.0001631,53.2179,61.3147,82.4037,277.7141,6.1478e-05,6.91e-06,0.0,0 STARLINK-5159,1 53974U 22125L   24029.48382148  .00000691  00000-0  61478-4 0  9991,2 53974  53.2179  61.3147 0001631  82.4037 277.7141 15.08846978 73403,6917.859,95.437,540.852,538.596,0.0
53974.0,STARLINK-5159,PAYLOAD,2024-01-30 08:16:43,15.08838331,0.0001691,53.2182,57.447,106.6823,253.4355,-1.0369e-05,-4.53e-06,0.0,0 STARLINK-5159,1 53974U 22125L   24030.34494840 -.00000453  00000-0 -10369-4 0  9992,2 53974  53.2182  57.4470 0001691 106.6823 253.4355 15.08838331 73536,6917.885,95.438,540.92,538.581,0.0
53974.0,STARLINK-5159,PAYLOAD,2024-01-31 08:07:30,15.08840856,0.0001769,53.2187,52.9866,105.5795,254.5392,-6.3789e-06,-3.9e-06,0.0,0 STARLINK-5159,1 53974U 22125L   24031.33854743 -.00000390  00000-0 -63789-5 0  9999,2 53974  53.2187  52.9866 0001769 105.5795 254.5392 15.08840856 73619,6917.878,95.438,540.967,538.519,0.0
